GLOBALSTAR M023         
1 25621U 99004A   24162.89002562 -.00000015  00000+0  49684-3 0  9995
2 25621  52.0101 104.0131 0010627  28.1672  36.6642 12.62456624168830
GLOBALSTAR M040         
1 25622U 99004B   24162.58585042 -.00000083  00000+0  11686-3 0  9997
2 25622  51.9910 108.5440 0000833 339.0273 192.0529 12.61976036168337
GLOBALSTAR M036         
1 25623U 99004C   24162.96230883 -.00000067  00000+0  22762-3 0  9999
2 25623  51.9937 138.7622 0011342  57.3408 310.6053 11.86567353134912
GLOBALSTAR M022         
1 25649U 99012A   24162.92917389 -.00000089  00000+0 -25529-4 0  9995
2 25649  52.0024 220.1371 0002799 157.0575 255.1888 12.02483871131710
GLOBALSTAR M046         
1 25651U 99012C   24162.78630747 -.00000144  00000+0 -60458-3 0  9993
2 25651  52.0020 184.2160 0002437 231.8995 299.4600 12.09390430138727
GLOBALSTAR M037         
1 25652U 99012D   24162.95481083 -.00000015  00000+0  49594-3 0  9994
2 25652  51.9995 234.5756 0002087  96.5028  75.1750 12.62408601164386
